COMMENT,ORIGINATOR,NORAD_CAT_ID,OBJECT_NAME,OBJECT_TYPE,CLASSIFICATION_TYPE,INTLDES,EPOCH,EPOCH_MICROSECONDS,MEAN_MOTION,ECCENTRICITY,INCLINATION,RA_OF_ASC_NODE,ARG_OF_PERICENTER,MEAN_ANOMALY,EPHEMERIS_TYPE,ELEMENT_SET_NO,REV_AT_EPOCH,BSTAR,MEAN_MOTION_DOT,MEAN_MOTION_DDOT,FILE,TLE_LINE0,TLE_LINE1,TLE_LINE2,OBJECT_ID,OBJECT_NUMBER,SEMIMAJOR_AXIS,PERIOD,APOGEE,PERIGEE,DECAYED,date
GENERATED VIA SPACETRACK.ORG API,18 SPCS,48884,SPACEBEE-101,PAYLOAD,U,21059F,2023/4/10 8:48,647360,15.26764482,0.0007706,97.5854,235.6617,157.6404,202.5172,0,999,9901,0.0013394,0.00035327,0,3885195,0 SPACEBEE-101,1 48884U 21059F   23100.36710240  .00035327  00000-0  13394-2 0  9990,2 48884  97.5854 235.6617 0007706 157.6404 202.5172 15.26764482 99012,2021-059F,48884,6863.629,94.317,490.783,480.205,0,
GENERATED VIA SPACETRACK.ORG API,18 SPCS,48884,SPACEBEE-101,PAYLOAD,U,21059F,2023/4/11 2:06,677952,15.2681831,0.0007688,97.5853,236.3941,155.3505,204.8102,0,999,9912,0.0013584,0.0003589,0,3885426,0 SPACEBEE-101,1 48884U 21059F   23101.08802868  .00035890  00000-0  13584-2 0  9994,2 48884  97.5853 236.3941 0007688 155.3505 204.8102 15.26818310 99125,2021-059F,48884,6863.468,94.314,490.609,480.056,0,
GENERATED VIA SPACETRACK.ORG API,18 SPCS,48884,SPACEBEE-101,PAYLOAD,U,21059F,2023/4/11 14:41,713248,15.26857249,0.0007664,97.5853,236.9267,153.8016,206.3611,0,999,9920,0.0013714,0.00036278,0,3885783,0 SPACEBEE-101,1 48884U 21059F   23101.61232307  .00036278  00000-0  13714-2 0  9994,2 48884  97.5853 236.9267 0007664 153.8016 206.3611 15.26857249 99201,2021-059F,48884,6863.351,94.311,490.476,479.956,0,
GENERATED VIA SPACETRACK.ORG API,18 SPCS,48884,SPACEBEE-101,PAYLOAD,U,21059F,2023/4/12 7:59,91712,15.26906206,0.000758,97.5852,237.6591,151.4847,208.6808,0,999,9931,0.0012399,0.00032825,0,3886349,0 SPACEBEE-101,1 48884U 21059F   23102.33320708  .00032825  00000-0  12399-2 0  9999,2 48884  97.5852 237.6591 0007580 151.4847 208.6808 15.26906206 99314,2021-059F,48884,6863.204,94.308,490.272,479.867,0,
GENERATED VIA SPACETRACK.ORG API,18 SPCS,48884,SPACEBEE-101,PAYLOAD,U,21059F,2023/4/13 7:35,935232,15.2697949,0.0007615,97.5855,238.6584,148.199,211.9709,0,999,9946,0.001368,0.00036322,0,3886564,0 SPACEBEE-101,1 48884U 21059F   23103.31619138  .00036322  00000-0  13680-2 0  9996,2 48884  97.5855 238.6584 0007615 148.1990 211.9709 15.26979490 99469,2021-059F,48884,6862.985,94.304,490.076,479.624,0,
GENERATED VIA SPACETRACK.ORG API,18 SPCS,48884,SPACEBEE-101,PAYLOAD,U,21059F,2023/4/14 8:45,256800,15.27061361,0.0007605,97.5853,239.7239,144.3161,215.8587,0,999,9962,0.0014792,0.00039394,0,3887267,0 SPACEBEE-101,1 48884U 21059F   23104.36465575  .00039394  00000-0  14792-2 0  9993,2 48884  97.5853 239.7239 0007605 144.3161 215.8587 15.27061361 99628,2021-059F,48884,6862.74,94.299,489.824,479.385,0,
GENERATED VIA SPACETRACK.ORG API,18 SPCS,48884,SPACEBEE-101,PAYLOAD,U,21059F,2023/4/14 8:45,256800,15.27061361,0.0007605,97.5853,239.7239,144.3161,215.8587,0,999,9962,0.0014792,0.00039394,0,3887333,0 SPACEBEE-101,1 48884U 21059F   23104.36465575  .00039394  00000-0  14792-2 0  9993,2 48884  97.5853 239.7239 0007605 144.3161 215.8587 15.27061361 99628,2021-059F,48884,6862.74,94.299,489.824,479.385,0,
GENERATED VIA SPACETRACK.ORG API,18 SPCS,48884,SPACEBEE-101,PAYLOAD,U,21059F,2023/4/15 8:20,148416,15.27146893,0.0007518,97.585,240.7231,141.4865,218.6912,0,999,9977,0.001608,0.00042961,0,3887974,0 SPACEBEE-101,1 48884U 21059F   23105.34753644  .00042961  00000-0  16080-2 0  9995,2 48884  97.5850 240.7231 0007518 141.4865 218.6912 15.27146893 99774,2021-059F,48884,6862.483,94.293,489.507,479.189,0,
GENERATED VIA SPACETRACK.ORG API,18 SPCS,48884,SPACEBEE-101,PAYLOAD,U,21059F,2023/4/15 20:55,284000,15.27195651,0.0007472,97.5852,241.256,139.653,220.5264,0,999,9985,0.0016541,0.00044268,0,3888027,0 SPACEBEE-101,1 48884U 21059F   23105.87171625  .00044268  00000-0  16541-2 0  9990,2 48884  97.5852 241.2560 0007472 139.6530 220.5264 15.27195651 99851,2021-059F,48884,6862.337,94.29,489.33,479.075,0,
GENERATED VIA SPACETRACK.ORG API,18 SPCS,48884,SPACEBEE-101,PAYLOAD,U,21059F,2023/4/15 20:55,284000,15.27195651,0.0007472,97.5852,241.256,139.653,220.5264,0,999,9985,0.0016541,0.00044268,0,3888171,0 SPACEBEE-101,1 48884U 21059F   23105.87171625  .00044268  00000-0  16541-2 0  9990,2 48884  97.5852 241.2560 0007472 139.6530 220.5264 15.27195651 99851,2021-059F,48884,6862.337,94.29,489.33,479.075,0,
GENERATED VIA SPACETRACK.ORG API,18 SPCS,48884,SPACEBEE-101,PAYLOAD,U,21059F,2023/4/16 7:55,140288,15.2723535,0.0007399,97.585,241.722,138.2054,221.9751,0,999,9992,0.0016026,0.0004293,0,3888626,0 SPACEBEE-101,1 48884U 21059F   23106.33036042  .00042930  00000-0  16026-2 0  9997,2 48884  97.5850 241.7220 0007399 138.2054 221.9751 15.27235350 99926,2021-059F,48884,6862.218,94.288,489.161,479.006,0,
GENERATED VIA SPACETRACK.ORG API,18 SPCS,48884,SPACEBEE-101,PAYLOAD,U,21059F,2023/4/16 20:30,627712,15.27284818,0.0007385,97.5851,242.2549,136.4149,223.7674,0,999,10000,0.001649,0.00044249,0,3888799,0 SPACEBEE-101,1 48884U 21059F   23106.85450958  .00044249  00000-0  16490-2 0  9990,2 48884  97.5851 242.2549 0007385 136.4149 223.7674 15.27284818100006,2021-059F,48884,6862.07,94.285,489.003,478.867,0,
GENERATED VIA SPACETRACK.ORG API,18 SPCS,48884,SPACEBEE-101,PAYLOAD,U,21059F,2023/4/17 4:22,977760,15.27313721,0.0007388,97.5856,242.5881,135.0642,225.1196,0,999,10005,0.0016653,0.00044729,0,3888853,0 SPACEBEE-101,1 48884U 21059F   23107.18209465  .00044729  00000-0  16653-2 0  9996,2 48884  97.5856 242.5881 0007388 135.0642 225.1196 15.27313721100055,2021-059F,48884,6861.984,94.283,488.918,478.779,0,
GENERATED VIA SPACETRACK.ORG API,18 SPCS,48884,SPACEBEE-101,PAYLOAD,U,21059F,2023/4/17 9:05,708544,15.27332508,0.0007365,97.5857,242.788,134.4279,225.7564,0,999,10008,0.0016584,0.00044568,0,3889215,0 SPACEBEE-101,1 48884U 21059F   23107.37864246  .00044568  00000-0  16584-2 0  9995,2 48884  97.5857 242.7880 0007365 134.4279 225.7564 15.27332508100083,2021-059F,48884,6861.927,94.282,488.846,478.738,0,
GENERATED VIA SPACETRACK.ORG API,18 SPCS,48884,SPACEBEE-101,PAYLOAD,U,21059F,2023/4/17 21:39,439808,15.27378964,0.0007354,97.586,243.321,132.6414,227.5446,0,999,10016,0.0016587,0.00044639,0,3889391,0 SPACEBEE-101,1 48884U 21059F   23107.90275972  .00044639  00000-0  16587-2 0  9998,2 48884  97.5860 243.3210 0007354 132.6414 227.5446 15.27378964100164,2021-059F,48884,6861.788,94.279,488.699,478.607,0,
GENERATED VIA SPACETRACK.ORG API,18 SPCS,48884,SPACEBEE-101,PAYLOAD,U,21059F,2023/4/18 8:40,645184,15.27415438,0.0007345,97.586,243.7874,130.9871,229.2004,0,999,10023,0.001567,0.000422,0,3889684,0 SPACEBEE-101,1 48884U 21059F   23108.36135006  .00042200  00000-0  15670-2 0  9996,2 48884  97.5860 243.7874 0007345 130.9871 229.2004 15.27415438100237,2021-059F,48884,6861.679,94.277,488.584,478.504,0,
GENERATED VIA SPACETRACK.ORG API,18 SPCS,48884,SPACEBEE-101,PAYLOAD,U,21059F,2023/4/18 14:57,447232,15.2743717,0.0007347,97.5861,244.0539,130.1397,230.0486,0,999,10027,0.001566,0.00042201,0,3889690,0 SPACEBEE-101,1 48884U 21059F   23108.62339638  .00042201  00000-0  15660-2 0  9992,2 48884  97.5861 244.0539 0007347 130.1397 230.0486 15.27437170100272,2021-059F,48884,6861.614,94.276,488.52,478.438,0,
GENERATED VIA SPACETRACK.ORG API,18 SPCS,48884,SPACEBEE-101,PAYLOAD,U,21059F,2023/4/18 14:57,447232,15.2743717,0.0007347,97.5861,244.0539,130.1397,230.0486,0,999,10027,0.001566,0.00042201,0,3889987,0 SPACEBEE-101,1 48884U 21059F   23108.62339638  .00042201  00000-0  15660-2 0  9992,2 48884  97.5861 244.0539 0007347 130.1397 230.0486 15.27437170100272,2021-059F,48884,6861.614,94.276,488.52,478.438,0,
GENERATED VIA SPACETRACK.ORG API,18 SPCS,48884,SPACEBEE-101,PAYLOAD,U,21059F,2023/4/19 8:15,950784,15.27501405,0.0007252,97.5863,244.7867,127.9114,232.2781,0,999,10038,0.0017153,0.00046346,0,3890383,0 SPACEBEE-101,1 48884U 21059F   23109.34400406  .00046346  00000-0  17153-2 0  9997,2 48884  97.5863 244.7867 0007252 127.9114 232.2781 15.27501405100388,2021-059F,48884,6861.421,94.272,488.262,478.311,0,
GENERATED VIA SPACETRACK.ORG API,18 SPCS,48884,SPACEBEE-101,PAYLOAD,U,21059F,2023/4/19 22:24,422080,15.2755478,0.00072,97.5865,245.3863,125.9992,234.1915,0,999,10047,0.001743,0.00047177,0,3890584,0 SPACEBEE-101,1 48884U 21059F   23109.93356970  .00047177  00000-0  17430-2 0  9999,2 48884  97.5865 245.3863 0007200 125.9992 234.1915 15.27554780100472,2021-059F,48884,6861.262,94.268,488.067,478.187,0,
GENERATED VIA SPACETRACK.ORG API,18 SPCS,48884,SPACEBEE-101,PAYLOAD,U,21059F,2023/4/20 7:50,525984,15.27580471,0.0007185,97.5867,245.786,124.6659,235.5257,0,999,10053,0.0013968,0.00037773,0,3890827,0 SPACEBEE-101,1 48884U 21059F   23110.32660331  .00037773  00000-0  13968-2 0  9996,2 48884  97.5867 245.7860 0007185 124.6659 235.5257 15.27580471100530,2021-059F,48884,6861.185,94.267,487.979,478.12,0,
GENERATED VIA SPACETRACK.ORG API,18 SPCS,48884,SPACEBEE-101,PAYLOAD,U,21059F,2023/4/20 15:41,399136,15.27605732,0.0007217,97.5869,246.1191,123.608,236.5848,0,999,10058,0.0013591,0.00036775,0,3890890,0 SPACEBEE-101,1 48884U 21059F   23110.65412499  .00036775  00000-0  13591-2 0  9995,2 48884  97.5869 246.1191 0007217 123.6080 236.5848 15.27605732100587,2021-059F,48884,6861.109,94.265,487.926,478.022,0,
GENERATED VIA SPACETRACK.ORG API,18 SPCS,48884,SPACEBEE-101,PAYLOAD,U,21059F,2023/4/20 15:41,399136,15.27605732,0.0007217,97.5869,246.1191,123.608,236.5848,0,999,10058,0.0013591,0.00036775,0,3891109,0 SPACEBEE-101,1 48884U 21059F   23110.65412499  .00036775  00000-0  13591-2 0  9995,2 48884  97.5869 246.1191 0007217 123.6080 236.5848 15.27605732100587,2021-059F,48884,6861.109,94.265,487.926,478.022,0,
